STARLETTE               
1 07646U 75010A   22260.57373406 -.00000141  00000+0 -25575-6 0  9990
2 07646  49.8237 106.6096 0205760 221.9074 136.5911 13.82313515405222
LAGEOS 1                
1 08820U 76039A   22260.48408204  .00000030  00000+0  00000+0 0  9996
2 08820 109.8518  70.5145 0045142 235.1988 162.1959  6.38664873825735
AJISAI (EGS)            
1 16908U 86061A   22260.54721410 -.00000098  00000+0 -80584-5 0  9999
2 16908  50.0112  35.8606 0011159 296.8214 186.7340 12.44497112309963
COSMOS 1989 (ETALON 1)  
1 19751U 89001C   22260.51202025  .00000000  00000+0  00000+0 0  9998
2 19751  64.3242 119.2191 0023808 213.4057 324.1238  2.13156396262192
COSMOS 2024 (ETALON 2)  
1 20026U 89039C   22260.50355042 -.00000094  00000+0  00000+0 0  9997
2 20026  65.5286 357.2668 0018598 218.5873 237.6127  2.13204403259324
LAGEOS 2                
1 22195U 92070B   22260.49256955 -.00000009  00000+0  00000+0 0  9992
2 22195  52.6683  51.6202 0138387 309.0605  91.3439  6.47293684706810
STELLA                  
1 22824U 93061B   22260.58923605 -.00000049  00000+0 -91369-6 0  9995
2 22824  98.9614 283.8223 0005429 245.0633 232.6121 14.27392980509521
LARES                   
1 38077U 12006A   22260.64405647 -.00000008  00000+0  18584-3 0  9999
2 38077  69.4911 109.8376 0011425 254.7087 105.2652 12.54931684485479
